{
"type": "FeatureCollection",
"name": "test_landuse",
"crs": { "type": "name", "properties": { "name": "urn:ogc:def:crs:OGC:1.3:CRS84" } },
"features": [
{ "type": "Feature", "properties": { "zid": 1, "land use type": "green" }, "geometry": { "type": "MultiPolygon", "coordinates": [ [ [ [ 36.775934686709128, -1.292274710167837 ], [ 36.78222895525613, -1.291614368414224 ], [ 36.78222895525613, -1.291614368414224 ], [ 36.782850611408918, -1.295926008527448 ], [ 36.780869082421894, -1.298411995888854 ], [ 36.776051247237781, -1.298839274720518 ], [ 36.775934686709128, -1.292274710167837 ] ] ] ] } },
{ "type": "Feature", "properties": { "zid": 2, "land use type": "low dense " }, "geometry": { "type": "MultiPolygon", "coordinates": [ [ [ [ 36.78222895525613, -1.291614368414224 ], [ 36.785920038663313, -1.291264775651661 ], [ 36.786463987796992, -1.29553757278169 ], [ 36.782850611408918, -1.295926008527448 ], [ 36.78222895525613, -1.291614368414224 ] ] ] ] } },
{ "type": "Feature", "properties": { "zid": 3, "land use type": "high dense" }, "geometry": { "type": "MultiPolygon", "coordinates": [ [ [ [ 36.780869082421894, -1.298411995888854 ], [ 36.782850611408918, -1.295926008527448 ], [ 36.786463987796985, -1.29553757278169 ], [ 36.7867748158734, -1.299421927556354 ], [ 36.780946789441003, -1.29965498865306 ], [ 36.780869082421894, -1.298411995888854 ] ] ] ] } }
]
}
