{
"type": "FeatureCollection",
"name": "landuse",
"crs": { "type": "name", "properties": { "name": "urn:ogc:def:crs:OGC:1.3:CRS84" } },
"features": [
{ "type": "Feature", "properties": { "luf": "Agricultural", "zoneid": 1, "population": 0, "floorarear": 0, "setback": 0, "densitycap": 0, "area": 29.9415, "avgincome": "0" }, "geometry": { "type": "MultiPolygon", "coordinates": [ [ [ [ 34.730462161341066, 3.757394088528035, 0.0 ], [ 34.735795643622673, 3.754184250270394, 0.0 ], [ 34.734667941304238, 3.752252949798192, 0.0 ], [ 34.738872820251267, 3.749803020956449, 0.0 ], [ 34.738412191127736, 3.749005215267678, 0.0 ], [ 34.728847763093952, 3.754577783812372, 0.0 ], [ 34.730462161341066, 3.757394088528035, 0.0 ] ] ] ] } },
{ "type": "Feature", "properties": { "luf": "Educational", "zoneid": 2, "population": 0, "floorarear": 0, "setback": 0, "densitycap": 0, "area": 0.31413, "avgincome": "0" }, "geometry": { "type": "MultiPolygon", "coordinates": [ [ [ [ 34.726887267681384, 3.759514057322839, -0.00002350000068 ], [ 34.726634657584121, 3.759068367935576, -0.00002350000068 ], [ 34.726202769187417, 3.759320093130619, -0.00002350000068 ], [ 34.726457737859924, 3.759765377428882, -0.00002350000068 ], [ 34.726887267681384, 3.759514057322839, -0.00002350000068 ] ] ] ] } },
{ "type": "Feature", "properties": { "luf": "Commercial", "zoneid": 3, "population": 0, "floorarear": 0, "setback": 0, "densitycap": 0, "area": 0.31442, "avgincome": "0" }, "geometry": { "type": "MultiPolygon", "coordinates": [ [ [ [ 34.726403013764404, 3.759788906090937, -0.00002350000068 ], [ 34.726144873361534, 3.759342979692094, -0.00002350000068 ], [ 34.725716634434406, 3.759594471455924, -0.00002350000068 ], [ 34.725972543266664, 3.760039957568643, -0.00002350000068 ], [ 34.726403013764404, 3.759788906090937, -0.00002350000068 ] ] ] ] } },
{ "type": "Feature", "properties": { "luf": "Commercial / Mixed Use", "zoneid": 4, "population": 7, "floorarear": 0, "setback": 0, "densitycap": 500, "area": 1.45167, "avgincome": "lowIncomeA" }, "geometry": { "type": "MultiPolygon", "coordinates": [ [ [ [ 34.721392871734515, 3.759718707490121, -0.00002350000068 ], [ 34.722176503090097, 3.759263512512777, -0.00002350000068 ], [ 34.721524446746976, 3.758133033254657, -0.00002350000068 ], [ 34.720741834681888, 3.758591052124851, -0.00002350000068 ], [ 34.721392871734515, 3.759718707490121, -0.00002350000068 ] ] ] ] } },
{ "type": "Feature", "properties": { "luf": "Industrial", "zoneid": 5, "population": 0, "floorarear": 0, "setback": 0, "densitycap": 0, "area": 3.92495, "avgincome": "0" }, "geometry": { "type": "MultiPolygon", "coordinates": [ [ [ [ 34.721829227626998, 3.758305109540888, -0.00002350000068 ], [ 34.723387794406364, 3.757399769366726, -0.00002350000068 ], [ 34.722502392302573, 3.755859501690493, -0.00002350000068 ], [ 34.720952793223439, 3.756753622163103, -0.00002350000068 ], [ 34.721829227626998, 3.758305109540888, -0.00002350000068 ] ] ] ] } },
{ "type": "Feature", "properties": { "luf": "Industrial", "zoneid": 6, "population": 0, "floorarear": 0, "setback": 0, "densitycap": 0, "area": 1.8139, "avgincome": "0" }, "geometry": { "type": "MultiPolygon", "coordinates": [ [ [ [ 34.722332429940749, 3.759174896733514, -0.00002350000068 ], [ 34.723890997824689, 3.758269556103314, -0.00002350000068 ], [ 34.723480271543494, 3.757564661404455, -0.00002350000068 ], [ 34.721920852671303, 3.758460586299274, -0.00002350000068 ], [ 34.722332429940749, 3.759174896733514, -0.00002350000068 ] ] ] ] } },
{ "type": "Feature", "properties": { "luf": "Public Purpose", "zoneid": 7, "population": 0, "floorarear": 0, "setback": 0, "densitycap": 0, "area": 0.33595, "avgincome": "0" }, "geometry": { "type": "MultiPolygon", "coordinates": [ [ [ [ 34.724809290734925, 3.760712641778377, -0.00002350000068 ], [ 34.724548279738727, 3.760269471190178, -0.00002350000068 ], [ 34.724087464855387, 3.760534964905551, -0.00002350000068 ], [ 34.724348020769256, 3.760977904202512, -0.00002350000068 ], [ 34.724809290734925, 3.760712641778377, -0.00002350000068 ] ] ] ] } },
{ "type": "Feature", "properties": { "luf": "Public Utility", "zoneid": 8, "population": 0, "floorarear": 0, "setback": 0, "densitycap": 0, "area": 1.76649, "avgincome": "0" }, "geometry": { "type": "MultiPolygon", "coordinates": [ [ [ [ 34.721499353417819, 3.758032269626221, -0.00002350000068 ], [ 34.720792878288023, 3.756796604371367, -0.00002350000068 ], [ 34.719917329127831, 3.757306755327097, -0.00002350000068 ], [ 34.720629057020204, 3.758539361113836, -0.00002350000068 ], [ 34.721499353417819, 3.758032269626221, -0.00002350000068 ] ] ] ] } },
{ "type": "Feature", "properties": { "luf": "Public Purpose", "zoneid": 9, "population": 0, "floorarear": 0, "setback": 0, "densitycap": 0, "area": 0.31442, "avgincome": "0" }, "geometry": { "type": "MultiPolygon", "coordinates": [ [ [ [ 34.725436233450971, 3.760352951676638, -0.00002350000068 ], [ 34.72517809311254, 3.759907025749909, -0.00002350000068 ], [ 34.724749854388783, 3.760158517287868, -0.00002350000068 ], [ 34.725005763156084, 3.76060400383071, -0.00002350000068 ], [ 34.725436233450971, 3.760352951676638, -0.00002350000068 ] ] ] ] } },
{ "type": "Feature", "properties": { "luf": "Public Purpose", "zoneid": 10, "population": 0, "floorarear": 0, "setback": 0, "densitycap": 0, "area": 0.31442, "avgincome": "0" }, "geometry": { "type": "MultiPolygon", "coordinates": [ [ [ [ 34.725929828154563, 3.760058225675049, -0.00002350000068 ], [ 34.725671687787667, 3.759612299967965, -0.00002350000068 ], [ 34.725243448521901, 3.759863791620657, -0.00002350000068 ], [ 34.725499357318853, 3.76030927794488, -0.00002350000068 ], [ 34.725929828154563, 3.760058225675049, -0.00002350000068 ] ] ] ] } },
{ "type": "Feature", "properties": { "luf": "Public Space", "zoneid": 11, "population": 0, "floorarear": 0, "setback": 0, "densitycap": 0, "area": 8.03718, "avgincome": "0" }, "geometry": { "type": "MultiPolygon", "coordinates": [ [ [ [ 34.726577531686331, 3.758974687370019, 0.0 ], [ 34.725678326273197, 3.757402808302633, 0.0 ], [ 34.722561079731108, 3.75922339550343, 0.0 ], [ 34.723459315831242, 3.760798052097717, 0.0 ], [ 34.726577531686331, 3.758974687370019, 0.0 ] ] ] ] } },
{ "type": "Feature", "properties": { "luf": "Public Utility", "zoneid": 12, "population": 0, "floorarear": 0, "setback": 0, "densitycap": 0, "area": 2.62998, "avgincome": "0" }, "geometry": { "type": "MultiPolygon", "coordinates": [ [ [ [ 34.722250085491829, 3.759390865473108, 0.0 ], [ 34.721486158592747, 3.759828682783776, 0.0 ], [ 34.722690482640807, 3.761941443667806, 0.0 ], [ 34.72345271698731, 3.761495603488978, 0.0 ], [ 34.722250085491829, 3.759390865473108, 0.0 ] ] ] ] } },
{ "type": "Feature", "properties": { "luf": "Public Utility", "zoneid": 13, "population": 0, "floorarear": 0, "setback": 0, "densitycap": 0, "area": 2.00912, "avgincome": "0" }, "geometry": { "type": "MultiPolygon", "coordinates": [ [ [ [ 34.728398241597716, 3.757583128190281, -0.0000235 ], [ 34.727686515176657, 3.756350523458416, -0.0000235 ], [ 34.726693700723402, 3.756929000848271, -0.0000235 ], [ 34.727405427864952, 3.75816160680381, -0.0000235 ], [ 34.728398241597716, 3.757583128190281, -0.0000235 ] ] ] ] } },
{ "type": "Feature", "properties": { "luf": "Public Space", "zoneid": 14, "population": 0, "floorarear": 0, "setback": 0, "densitycap": 0, "area": 0.4754, "avgincome": "0" }, "geometry": { "type": "MultiPolygon", "coordinates": [ [ [ [ 34.723577220826655, 3.761416169375913, 0.0 ], [ 34.72422773902813, 3.761044068674576, 0.0 ], [ 34.723964702921506, 3.760601502284954, 0.0 ], [ 34.723312760537262, 3.760970336530144, 0.0 ], [ 34.723577220826655, 3.761416169375913, 0.0 ] ] ] ] } },
{ "type": "Feature", "properties": { "luf": "Residential", "zoneid": 15, "population": 13, "floorarear": 0, "setback": 0, "densitycap": 500, "area": 0.38602, "avgincome": "lowIncomeB" }, "geometry": { "type": "MultiPolygon", "coordinates": [ [ [ [ 34.729247367053098, 3.756458136582215, 0.0000265 ], [ 34.728816950810248, 3.756707047816767, 0.0000265 ], [ 34.729133474113013, 3.757255263390095, 0.0000265 ], [ 34.729562655348417, 3.757005902233119, 0.0000265 ], [ 34.729247367053098, 3.756458136582215, 0.0000265 ] ] ] ] } },
{ "type": "Feature", "properties": { "luf": "Residential", "zoneid": 16, "population": 13, "floorarear": 0, "setback": 0, "densitycap": 500, "area": 0.87698, "avgincome": "lowIncomeB" }, "geometry": { "type": "MultiPolygon", "coordinates": [ [ [ [ 34.729670551812632, 3.757177254281865, 0.0000265 ], [ 34.729245489836543, 3.757427531504319, 0.0000265 ], [ 34.729966231155707, 3.758680194238183, 0.0000265 ], [ 34.730393058764804, 3.758431888825043, 0.0000265 ], [ 34.729670551812632, 3.757177254281865, 0.0000265 ] ] ] ] } },
{ "type": "Feature", "properties": { "luf": "Residential", "zoneid": 17, "population": 78, "floorarear": 0, "setback": 0, "densitycap": 500, "area": 0.36561, "avgincome": "lowIncomeB" }, "geometry": { "type": "MultiPolygon", "coordinates": [ [ [ [ 34.727533391432686, 3.759023643383946, 0.0000265 ], [ 34.727246312808724, 3.758479474958052, 0.0000265 ], [ 34.726819618541505, 3.758699833042185, 0.0000265 ], [ 34.727099551536377, 3.759246824586387, 0.0000265 ], [ 34.727533391432686, 3.759023643383946, 0.0000265 ] ] ] ] } },
{ "type": "Feature", "properties": { "luf": "Residential", "zoneid": 18, "population": 91, "floorarear": 0, "setback": 0, "densitycap": 500, "area": 0.37569, "avgincome": "lowIncomeB" }, "geometry": { "type": "MultiPolygon", "coordinates": [ [ [ [ 34.728023258851508, 3.758771640714646, 0.0000265 ], [ 34.727735781642799, 3.758226697467701, 0.0000265 ], [ 34.727294456476947, 3.758454612881359, 0.0000265 ], [ 34.727581574866029, 3.758998857162306, 0.0000265 ], [ 34.728023258851508, 3.758771640714646, 0.0000265 ] ] ] ] } },
{ "type": "Feature", "properties": { "luf": "Residential", "zoneid": 19, "population": 91, "floorarear": 0, "setback": 0, "densitycap": 500, "area": 0.37621, "avgincome": "lowIncomeB" }, "geometry": { "type": "MultiPolygon", "coordinates": [ [ [ [ 34.728513113305283, 3.758519644253176, 0.0000265 ], [ 34.728225228520465, 3.757973931629488, 0.0000265 ], [ 34.727783914482572, 3.75820184082374, 0.0000265 ], [ 34.728071435952018, 3.758746857203877, 0.0000265 ], [ 34.728513113305283, 3.758519644253176, 0.0000265 ] ] ] ] } },
{ "type": "Feature", "properties": { "luf": "Residential", "zoneid": 20, "population": 91, "floorarear": 0, "setback": 0, "densitycap": 500, "area": 0.38265, "avgincome": "lowIncomeB" }, "geometry": { "type": "MultiPolygon", "coordinates": [ [ [ [ 34.728273372113122, 3.757949068619721, 0.0000265 ], [ 34.728561295762908, 3.758494857100102, 0.0000265 ], [ 34.728999520450429, 3.758269420557037, 0.0000265 ], [ 34.729005548201279, 3.758263978367431, 0.0000265 ], [ 34.728725018476823, 3.75771582339666, 0.0000265 ], [ 34.728273372113122, 3.757949068619721, 0.0000265 ] ] ] ] } }
]
}
