{"type": "FeatureCollection", "features": [{"id": "0", "type": "Feature", "properties": {"zoneid": 2, "bldid": 144, "specialfac": 1, "repvalue": 12435785.782800183, "expstr": "AdobeBrick+MC+6s+Edu", "fptarea": 138.1753975866687, "occbld": "Edu", "lrstype": "AdobeBrick", "codelevel": "MC", "nstoreys": 6, "unit_price": 15000.0, "nhouse": 0, "residents": 0}, "geometry": {"type": "Polygon", "coordinates": [[[34.72649765124265, 3.759357938104109], [34.726589239500676, 3.759318265369426], [34.72665724055094, 3.759438242111771], [34.72656565230163, 3.7594779148464537], [34.72649765124265, 3.759357938104109]]]}}, {"id": "1", "type": "Feature", "properties": {"zoneid": 3, "bldid": 139, "specialfac": 0, "repvalue": 6256396.826977201, "expstr": "RConcrete+MC+3s+Com", "fptarea": 119.16946337099431, "occbld": "Com", "lrstype": "RConcrete", "codelevel": "MC", "nstoreys": 3, "unit_price": 17500.0, "nhouse": 0, "residents": 0}, "geometry": {"type": "Polygon", "coordinates": [[[34.72598239217716, 3.759649432708176], [34.72583645678152, 3.759713528517951], [34.72579935455354, 3.7596489409133906], [34.7259452899568, 3.7595848451036167], [34.72598239217716, 3.759649432708176]]]}}, {"id": "2", "type": "Feature", "properties": {"zoneid": 3, "bldid": 137, "specialfac": 0, "repvalue": 2005546.673562545, "expstr": "TimberIronsheet+MC+1s+Com", "fptarea": 114.60266706071687, "occbld": "Com", "lrstype": "TimberIronsheet", "codelevel": "MC", "nstoreys": 1, "unit_price": 17500.0, "nhouse": 0, "residents": 0}, "geometry": {"type": "Polygon", "coordinates": [[[34.72609496104382, 3.7597344380974906], [34.72614877684555, 3.7598055613157664], [34.72603804115445, 3.7598701426427668], [34.72598422534286, 3.759799019424489], [34.72609496104382, 3.7597344380974906]]]}}, {"id": "3", "type": "Feature", "properties": {"zoneid": 3, "bldid": 138, "specialfac": 0, "repvalue": 7992529.886649473, "expstr": "TimberMud+MC+4s+Com", "fptarea": 114.17899838070676, "occbld": "Com", "lrstype": "TimberMud", "codelevel": "MC", "nstoreys": 4, "unit_price": 17500.0, "nhouse": 0, "residents": 0}, "geometry": {"type": "Polygon", "coordinates": [[[34.72603305213593, 3.75956386076849], [34.72597971198367, 3.7594938414024677], [34.726091305792124, 3.75942830573438], [34.72614464593452, 3.7594983251003997], [34.72603305213593, 3.75956386076849]]]}}, {"id": "4", "type": "Feature", "properties": {"zoneid": 3, "bldid": 142, "specialfac": 0, "repvalue": 15964956.941814197, "expstr": "RConcrete+MC+8s+Com", "fptarea": 114.03540672724426, "occbld": "Com", "lrstype": "RConcrete", "codelevel": "MC", "nstoreys": 8, "unit_price": 17500.0, "nhouse": 0, "residents": 0}, "geometry": {"type": "Polygon", "coordinates": [[[34.7262337102196, 3.7597263981171047], [34.72631722697922, 3.759836774247998], [34.72624622526787, 3.7598781826231513], [34.726162708498435, 3.7597678064922584], [34.7262337102196, 3.7597263981171047]]]}}, {"id": "5", "type": "Feature", "properties": {"zoneid": 3, "bldid": 131, "specialfac": 0, "repvalue": 9822762.255529247, "expstr": "TimberIronsheet+MC+5s+Com", "fptarea": 112.2601400631914, "occbld": "Com", "lrstype": "TimberIronsheet", "codelevel": "MC", "nstoreys": 5, "unit_price": 17500.0, "nhouse": 0, "residents": 0}, "geometry": {"type": "Polygon", "coordinates": [[[34.725984549248906, 3.7596361844263493], [34.72609959373368, 3.7595852534431256], [34.72614413074576, 3.7596621891952173], [34.726029086268255, 3.7597131201784424], [34.725984549248906, 3.7596361844263493]]]}}, {"id": "6", "type": "Feature", "properties": {"zoneid": 3, "bldid": 133, "specialfac": 0, "repvalue": 15591791.580953278, "expstr": "TimberIronsheet+MC+8s+Com", "fptarea": 111.36993986395198, "occbld": "Com", "lrstype": "TimberIronsheet", "codelevel": "MC", "nstoreys": 8, "unit_price": 17500.0, "nhouse": 0, "residents": 0}, "geometry": {"type": "Polygon", "coordinates": [[[34.72616619693081, 3.7596104526371144], [34.72624450298106, 3.759575786010495], [34.72630941633137, 3.7596879209844434], [34.726231110288325, 3.7597225876110647], [34.72616619693081, 3.7596104526371144]]]}}, {"id": "7", "type": "Feature", "properties": {"zoneid": 4, "bldid": 145, "specialfac": 2, "repvalue": 29708517.180212807, "expstr": "Masonry+MC+7s+Hea", "fptarea": 212.20369414437718, "occbld": "Hea", "lrstype": "Masonry", "codelevel": "MC", "nstoreys": 7, "unit_price": 20000.0, "nhouse": 0, "residents": 0}, "geometry": {"type": "Polygon", "coordinates": [[[34.72180755403228, 3.7591076991368695], [34.72192329666299, 3.759056649489242], [34.72200679916608, 3.7592014186428133], [34.72189105654903, 3.759252468290443], [34.72180755403228, 3.7591076991368695]]]}}, {"id": "8", "type": "Feature", "properties": {"zoneid": 4, "bldid": 14, "specialfac": 0, "repvalue": 2989288.3343560128, "expstr": "TimberMud+MC+3s+ResCom", "fptarea": 79.71435558282701, "occbld": "ResCom", "lrstype": "TimberMud", "codelevel": "MC", "nstoreys": 3, "unit_price": 12500.0, "nhouse": 6, "residents": 16}, "geometry": {"type": "Polygon", "coordinates": [[[34.721272177803634, 3.7589732495081463], [34.721194015880556, 3.75900775700102], [34.721147540885326, 3.7589272580174264], [34.72122570281354, 3.7588927505245535], [34.721272177803634, 3.7589732495081463]]]}}, {"id": "9", "type": "Feature", "properties": {"zoneid": 4, "bldid": 13, "specialfac": 0, "repvalue": 4973406.85934129, "expstr": "TimberMud+MC+5s+ResCom", "fptarea": 79.57450974946065, "occbld": "ResCom", "lrstype": "TimberMud", "codelevel": "MC", "nstoreys": 5, "unit_price": 12500.0, "nhouse": 10, "residents": 31}, "geometry": {"type": "Polygon", "coordinates": [[[34.72142892912057, 3.758397292241822], [34.7213682115848, 3.7583173196997692], [34.7214364484076, 3.7582773845215365], [34.721497165936505, 3.758357357063588], [34.72142892912057, 3.758397292241822]]]}}, {"id": "10", "type": "Feature", "properties": {"zoneid": 4, "bldid": 28, "specialfac": 0, "repvalue": 2981951.1117849625, "expstr": "AdobeBrick+MC+3s+ResCom", "fptarea": 79.51869631426567, "occbld": "ResCom", "lrstype": "AdobeBrick", "codelevel": "MC", "nstoreys": 3, "unit_price": 12500.0, "nhouse": 6, "residents": 17}, "geometry": {"type": "Polygon", "coordinates": [[[34.72137536428565, 3.7585046902375283], [34.72143737429936, 3.7584773400059195], [34.72149577877643, 3.758578596779902], [34.72143376876785, 3.7586059470115063], [34.72137536428565, 3.7585046902375283]]]}}, {"id": "11", "type": "Feature", "properties": {"zoneid": 4, "bldid": 35, "specialfac": 0, "repvalue": 5957292.79284973, "expstr": "TimberMud+MC+6s+ResCom", "fptarea": 79.43057057132972, "occbld": "ResCom", "lrstype": "TimberMud", "codelevel": "MC", "nstoreys": 6, "unit_price": 12500.0, "nhouse": 6, "residents": 17}, "geometry": {"type": "Polygon", "coordinates": [[[34.721267286735056, 3.758780295009511], [34.72120276940618, 3.7588087785839717], [34.72114666603169, 3.7587116022619775], [34.72121118336568, 3.7586831186875167], [34.721267286735056, 3.758780295009511]]]}}, {"id": "12", "type": "Feature", "properties": {"zoneid": 4, "bldid": 23, "specialfac": 0, "repvalue": 992880.3324585225, "expstr": "TimberIronsheet+MC+1s+ResCom", "fptarea": 79.4304265966818, "occbld": "ResCom", "lrstype": "TimberIronsheet", "codelevel": "MC", "nstoreys": 1, "unit_price": 12500.0, "nhouse": 2, "residents": 5}, "geometry": {"type": "Polygon", "coordinates": [[[34.72160969427163, 3.7587106199356604], [34.72167324752698, 3.7586825890342457], [34.72173017058526, 3.7587812773358293], [34.721666617335025, 3.758809308237245], [34.72160969427163, 3.7587106199356604]]]}}, {"id": "13", "type": "Feature", "properties": {"zoneid": 4, "bldid": 12, "specialfac": 0, "repvalue": 5868136.063923126, "expstr": "TimberMud+MC+6s+ResCom", "fptarea": 78.24181418564169, "occbld": "ResCom", "lrstype": "TimberMud", "codelevel": "MC", "nstoreys": 6, "unit_price": 12500.0, "nhouse": 12, "residents": 34}, "geometry": {"type": "Polygon", "coordinates": [[[34.72160743245524, 3.7589369983697587], [34.72169948787845, 3.7588963962497215], [34.72173819839917, 3.758963509155814], [34.72164614298099, 3.759004111275851], [34.72160743245524, 3.7589369983697587]]]}}, {"id": "14", "type": "Feature", "properties": {"zoneid": 4, "bldid": 18, "specialfac": 0, "repvalue": 2930891.8356930013, "expstr": "Masonry+MC+3s+ResCom", "fptarea": 78.15711561848003, "occbld": "ResCom", "lrstype": "Masonry", "codelevel": "MC", "nstoreys": 3, "unit_price": 12500.0, "nhouse": 6, "residents": 17}, "geometry": {"type": "Polygon", "coordinates": [[[34.72119592343432, 3.758599826950782], [34.721139780814546, 3.7585258801895747], [34.72121226362415, 3.758483460066644], [34.72126840623719, 3.75855740682785], [34.72119592343432, 3.758599826950782]]]}}, {"id": "15", "type": "Feature", "properties": {"zoneid": 4, "bldid": 4, "specialfac": 0, "repvalue": 3881737.2877767156, "expstr": "TimberIronsheet+MC+4s+ResCom", "fptarea": 77.63474575553431, "occbld": "ResCom", "lrstype": "TimberIronsheet", "codelevel": "MC", "nstoreys": 4, "unit_price": 12500.0, "nhouse": 8, "residents": 26}, "geometry": {"type": "Polygon", "coordinates": [[[34.72151295649777, 3.7589531139307146], [34.721401443909826, 3.759002345318608], [34.72136971827229, 3.7589473935948523], [34.72148123086523, 3.7588981622069606], [34.72151295649777, 3.7589531139307146]]]}}, {"id": "16", "type": "Feature", "properties": {"zoneid": 4, "bldid": 31, "specialfac": 0, "repvalue": 960669.9136873608, "expstr": "RConcrete+MC+1s+ResCom", "fptarea": 76.85359309498887, "occbld": "ResCom", "lrstype": "RConcrete", "codelevel": "MC", "nstoreys": 1, "unit_price": 12500.0, "nhouse": 1, "residents": 2}, "geometry": {"type": "Polygon", "coordinates": [[[34.721697291512285, 3.7593030016966833], [34.72174446435335, 3.7593655884172277], [34.72165987198838, 3.7594147263370976], [34.721612699140735, 3.7593521396165515], [34.721697291512285, 3.7593030016966833]]]}}, {"id": "17", "type": "Feature", "properties": {"zoneid": 4, "bldid": 22, "specialfac": 0, "repvalue": 1866767.9644919492, "expstr": "Masonry+MC+2s+ResCom", "fptarea": 74.67071857967797, "occbld": "ResCom", "lrstype": "Masonry", "codelevel": "MC", "nstoreys": 2, "unit_price": 12500.0, "nhouse": 4, "residents": 11}, "geometry": {"type": "Polygon", "coordinates": [[[34.72184535013359, 3.7589214763128656], [34.72191286365895, 3.758891698682647], [34.72196323680656, 3.7589790312127063], [34.721895723286, 3.7590088088429265], [34.72184535013359, 3.7589214763128656]]]}}, {"id": "18", "type": "Feature", "properties": {"zoneid": 4, "bldid": 16, "specialfac": 0, "repvalue": 930475.4940983478, "expstr": "RConcrete+MC+1s+ResCom", "fptarea": 74.43803952786783, "occbld": "ResCom", "lrstype": "RConcrete", "codelevel": "MC", "nstoreys": 1, "unit_price": 12500.0, "nhouse": 2, "residents": 7}, "geometry": {"type": "Polygon", "coordinates": [[[34.721368274598234, 3.758743191565525], [34.72147763268142, 3.7586949579139133], [34.72150863420899, 3.7587487057059636], [34.72139927613058, 3.758796939357577], [34.721368274598234, 3.758743191565525]]]}}, {"id": "19", "type": "Feature", "properties": {"zoneid": 4, "bldid": 5, "specialfac": 0, "repvalue": 2767064.795407931, "expstr": "TimberIronsheet+MC+3s+ResCom", "fptarea": 73.78839454421149, "occbld": "ResCom", "lrstype": "TimberIronsheet", "codelevel": "MC", "nstoreys": 3, "unit_price": 12500.0, "nhouse": 6, "residents": 18}, "geometry": {"type": "Polygon", "coordinates": [[[34.72160865918306, 3.7585114969602453], [34.72167403205591, 3.7584826634994974], [34.721725439884004, 3.758571790057181], [34.72166006701592, 3.7586006235179292], [34.72160865918306, 3.7585114969602453]]]}}, {"id": "20", "type": "Feature", "properties": {"zoneid": 4, "bldid": 1, "specialfac": 0, "repvalue": 5524582.167080304, "expstr": "TimberMud+MC+6s+ResCom", "fptarea": 73.66109556107071, "occbld": "ResCom", "lrstype": "TimberMud", "codelevel": "MC", "nstoreys": 6, "unit_price": 12500.0, "nhouse": 12, "residents": 38}, "geometry": {"type": "Polygon", "coordinates": [[[34.721703289754586, 3.7591002564301106], [34.721743418338846, 3.7591534972015497], [34.721648107318806, 3.7592088613495664], [34.721607978728244, 3.759155620578125], [34.721703289754586, 3.7591002564301106]]]}}, {"id": "21", "type": "Feature", "properties": {"zoneid": 4, "bldid": 9, "specialfac": 0, "repvalue": 3674303.322659044, "expstr": "AdobeBrick+MC+4s+ResCom", "fptarea": 73.48606645318088, "occbld": "ResCom", "lrstype": "AdobeBrick", "codelevel": "MC", "nstoreys": 4, "unit_price": 12500.0, "nhouse": 8, "residents": 23}, "geometry": {"type": "Polygon", "coordinates": [[[34.72144225220994, 3.759500906658036], [34.7215122399946, 3.759593763116974], [34.72145772173418, 3.759625431629878], [34.72138773394322, 3.759532575170939], [34.72144225220994, 3.759500906658036]]]}}, {"id": "22", "type": "Feature", "properties": {"zoneid": 4, "bldid": 10, "specialfac": 0, "repvalue": 4480070.52163889, "expstr": "TimberMud+MC+5s+ResCom", "fptarea": 71.68112834622224, "occbld": "ResCom", "lrstype": "TimberMud", "codelevel": "MC", "nstoreys": 5, "unit_price": 12500.0, "nhouse": 10, "residents": 29}, "geometry": {"type": "Polygon", "coordinates": [[[34.72103438224487, 3.7587685458532305], [34.72096132749521, 3.7588007985880374], [34.72091661447462, 3.758723351418258], [34.72098966922889, 3.7586910986834523], [34.72103438224487, 3.7587685458532305]]]}}, {"id": "23", "type": "Feature", "properties": {"zoneid": 4, "bldid": 37, "specialfac": 0, "repvalue": 1779668.2767250182, "expstr": "Masonry+MC+2s+ResCom", "fptarea": 71.18673106900073, "occbld": "ResCom", "lrstype": "Masonry", "codelevel": "MC", "nstoreys": 2, "unit_price": 12500.0, "nhouse": 2, "residents": 8}, "geometry": {"type": "Polygon", "coordinates": [[[34.72150135166368, 3.7591865657481294], [34.72143974859877, 3.7592137627213904], [34.72138708928569, 3.759122552031544], [34.72144869235519, 3.759095355058285], [34.72150135166368, 3.7591865657481294]]]}}, {"id": "24", "type": "Feature", "properties": {"zoneid": 4, "bldid": 7, "specialfac": 0, "repvalue": 2607388.4612035085, "expstr": "Masonry+MC+3s+ResCom", "fptarea": 69.5303589654269, "occbld": "ResCom", "lrstype": "Masonry", "codelevel": "MC", "nstoreys": 3, "unit_price": 12500.0, "nhouse": 6, "residents": 17}, "geometry": {"type": "Polygon", "coordinates": [[[34.72127136425698, 3.759174595276525], [34.72119637089318, 3.7592077038955964], [34.72115412056845, 3.7591345225031545], [34.721229113936715, 3.759101413884083], [34.72127136425698, 3.759174595276525]]]}}, {"id": "25", "type": "Feature", "properties": {"zoneid": 4, "bldid": 8, "specialfac": 0, "repvalue": 1684861.8218725314, "expstr": "TimberIronsheet+MC+2s+ResCom", "fptarea": 67.39447287490125, "occbld": "ResCom", "lrstype": "TimberIronsheet", "codelevel": "MC", "nstoreys": 2, "unit_price": 12500.0, "nhouse": 4, "residents": 13}, "geometry": {"type": "Polygon", "coordinates": [[[34.721932824819085, 3.7593068970206946], [34.72197344407189, 3.759360788740018], [34.721887294840705, 3.7594108310130903], [34.72184667558212, 3.7593569392937662], [34.721932824819085, 3.7593068970206946]]]}}, {"id": "26", "type": "Feature", "properties": {"zoneid": 4, "bldid": 29, "specialfac": 0, "repvalue": 2521378.1822656863, "expstr": "TimberMud+MC+3s+ResCom", "fptarea": 67.23675152708496, "occbld": "ResCom", "lrstype": "TimberMud", "codelevel": "MC", "nstoreys": 3, "unit_price": 12500.0, "nhouse": 6, "residents": 20}, "geometry": {"type": "Polygon", "coordinates": [[[34.721509930471136, 3.759367107739527], [34.721417384482876, 3.759407965627115], [34.721384276862764, 3.759350620294261], [34.72147682285537, 3.7593097624066747], [34.721509930471136, 3.759367107739527]]]}}, {"id": "27", "type": "Feature", "properties": {"zoneid": 4, "bldid": 34, "specialfac": 0, "repvalue": 837545.2442305781, "expstr": "AdobeBrick+MC+1s+ResCom", "fptarea": 67.00361953844624, "occbld": "ResCom", "lrstype": "AdobeBrick", "codelevel": "MC", "nstoreys": 1, "unit_price": 12500.0, "nhouse": 1, "residents": 4}, "geometry": {"type": "Polygon", "coordinates": [[[34.72095996915165, 3.7585944705079393], [34.72091221204208, 3.758531568491127], [34.72098526189863, 3.758488816509483], [34.72103301900242, 3.758551718526294], [34.72095996915165, 3.7585944705079393]]]}}, {"id": "28", "type": "Feature", "properties": {"zoneid": 5, "bldid": 128, "specialfac": 0, "repvalue": 17757352.03038289, "expstr": "RConcrete+MC+6s+Ind", "fptarea": 197.30391144869876, "occbld": "Ind", "lrstype": "RConcrete", "codelevel": "MC", "nstoreys": 6, "unit_price": 15000.0, "nhouse": 0, "residents": 0}, "geometry": {"type": "Polygon", "coordinates": [[[34.72195333722391, 3.7574710231183626], [34.7218278339645, 3.7575252005870197], [34.7217571151794, 3.7574000123171647], [34.72188261845119, 3.757345834848509], [34.72195333722391, 3.7574710231183626]]]}}, {"id": "29", "type": "Feature", "properties": {"zoneid": 5, "bldid": 129, "specialfac": 0, "repvalue": 5647234.817879045, "expstr": "TimberMud+MC+2s+Ind", "fptarea": 188.24116059596818, "occbld": "Ind", "lrstype": "TimberMud", "codelevel": "MC", "nstoreys": 2, "unit_price": 15000.0, "nhouse": 0, "residents": 0}, "geometry": {"type": "Polygon", "coordinates": [[[34.72140072663921, 3.75674311700851], [34.721298917694995, 3.756607157268622], [34.72139467982058, 3.756551902399658], [34.72149648874875, 3.7566878621395454], [34.72140072663921, 3.75674311700851]]]}}, {"id": "30", "type": "Feature", "properties": {"zoneid": 6, "bldid": 127, "specialfac": 0, "repvalue": 11543084.45653211, "expstr": "AdobeBrick+MC+4s+Ind", "fptarea": 192.38474094220183, "occbld": "Ind", "lrstype": "AdobeBrick", "codelevel": "MC", "nstoreys": 4, "unit_price": 15000.0, "nhouse": 0, "residents": 0}, "geometry": {"type": "Polygon", "coordinates": [[[34.72335819414975, 3.758124520599598], [34.72349671509611, 3.7580627815921264], [34.72356034627265, 3.758171986294254], [34.72342182533883, 3.758233725301727], [34.72335819414975, 3.758124520599598]]]}}, {"id": "31", "type": "Feature", "properties": {"zoneid": 15, "bldid": 69, "specialfac": 0, "repvalue": 3780181.232605269, "expstr": "TimberMud+MC+5s+Res", "fptarea": 75.60362465210538, "occbld": "Res", "lrstype": "TimberMud", "codelevel": "MC", "nstoreys": 5, "unit_price": 10000.0, "nhouse": 2, "residents": 3}, "geometry": {"type": "Polygon", "coordinates": [[[34.72930535986056, 3.756813980206976], [34.729401349112145, 3.756771734203577], [34.72943717715766, 3.7568339799833153], [34.72934118791094, 3.756876225986715], [34.72930535986056, 3.756813980206976]]]}}, {"id": "32", "type": "Feature", "properties": {"zoneid": 15, "bldid": 68, "specialfac": 0, "repvalue": 4328772.374069955, "expstr": "AdobeBrick+MC+6s+Res", "fptarea": 72.14620623449926, "occbld": "Res", "lrstype": "AdobeBrick", "codelevel": "MC", "nstoreys": 6, "unit_price": 10000.0, "nhouse": 6, "residents": 18}, "geometry": {"type": "Polygon", "coordinates": [[[34.72895787888408, 3.756761589625593], [34.72889382758208, 3.756676240636571], [34.728952215164476, 3.7566424748894085], [34.72901626646032, 3.7567278238784296], [34.72895787888408, 3.756761589625593]]]}}, {"id": "33", "type": "Feature", "properties": {"zoneid": 15, "bldid": 62, "specialfac": 0, "repvalue": 4193357.4186502118, "expstr": "TimberMud+MC+6s+Res", "fptarea": 69.88929031083687, "occbld": "Res", "lrstype": "TimberMud", "codelevel": "MC", "nstoreys": 6, "unit_price": 10000.0, "nhouse": 12, "residents": 34}, "geometry": {"type": "Polygon", "coordinates": [[[34.72915151714771, 3.756856056238267], [34.72909085532543, 3.756882839381914], [34.72903835195642, 3.7567919039520246], [34.7290990137832, 3.7567651208083777], [34.72915151714771, 3.756856056238267]]]}}, {"id": "34", "type": "Feature", "properties": {"zoneid": 15, "bldid": 61, "specialfac": 0, "repvalue": 673479.4072212764, "expstr": "AdobeBrick+MC+1s+Res", "fptarea": 67.34794072212765, "occbld": "Res", "lrstype": "AdobeBrick", "codelevel": "MC", "nstoreys": 1, "unit_price": 10000.0, "nhouse": 2, "residents": 7}, "geometry": {"type": "Polygon", "coordinates": [[[34.72917369983265, 3.75655276687929], [34.729237908191344, 3.756524508028087], [34.729285621046344, 3.756607401960417], [34.729221412692, 3.7566356608116176], [34.72917369983265, 3.75655276687929]]]}}, {"id": "35", "type": "Feature", "properties": {"zoneid": 15, "bldid": 65, "specialfac": 0, "repvalue": 2453730.044528057, "expstr": "TimberMud+MC+4s+Res", "fptarea": 61.343251113201426, "occbld": "Res", "lrstype": "TimberMud", "codelevel": "MC", "nstoreys": 4, "unit_price": 10000.0, "nhouse": 8, "residents": 26}, "geometry": {"type": "Polygon", "coordinates": [[[34.72907267973578, 3.7567516248282304], [34.72903320174502, 3.756699020022693], [34.72911374825405, 3.756652439686768], [34.72915322623957, 3.756705044492305], [34.72907267973578, 3.7567516248282304]]]}}, {"id": "36", "type": "Feature", "properties": {"zoneid": 15, "bldid": 64, "specialfac": 0, "repvalue": 2939609.444765977, "expstr": "AdobeBrick+MC+5s+Res", "fptarea": 58.79218889531955, "occbld": "Res", "lrstype": "AdobeBrick", "codelevel": "MC", "nstoreys": 5, "unit_price": 10000.0, "nhouse": 5, "residents": 12}, "geometry": {"type": "Polygon", "coordinates": [[[34.729179898784665, 3.756803076800075], [34.729245597714694, 3.7567741619257773], [34.72928630427609, 3.756844883390212], [34.72922060534984, 3.7568737982645093], [34.729179898784665, 3.756803076800075]]]}}, {"id": "37", "type": "Feature", "properties": {"zoneid": 15, "bldid": 58, "specialfac": 0, "repvalue": 562017.8339210179, "expstr": "TimberIronsheet+MC+1s+Res", "fptarea": 56.201783392101795, "occbld": "Res", "lrstype": "TimberIronsheet", "codelevel": "MC", "nstoreys": 1, "unit_price": 10000.0, "nhouse": 1, "residents": 2}, "geometry": {"type": "Polygon", "coordinates": [[[34.72914898953551, 3.7570997219687836], [34.729097628893804, 3.7571223984995985], [34.729047762027086, 3.7570360295721086], [34.729099122672416, 3.7570133530412946], [34.72914898953551, 3.7570997219687836]]]}}, {"id": "38", "type": "Feature", "properties": {"zoneid": 15, "bldid": 60, "specialfac": 0, "repvalue": 1054050.171601078, "expstr": "Masonry+MC+2s+Res", "fptarea": 52.7025085800539, "occbld": "Res", "lrstype": "Masonry", "codelevel": "MC", "nstoreys": 2, "unit_price": 10000.0, "nhouse": 2, "residents": 5}, "geometry": {"type": "Polygon", "coordinates": [[[34.72923619910014, 3.7568965306968174], [34.72928715370437, 3.7569641196575208], [34.729233445169854, 3.756995325168774], [34.72918249056111, 3.7569277362080706], [34.72923619910014, 3.7568965306968174]]]}}, {"id": "39", "type": "Feature", "properties": {"zoneid": 15, "bldid": 57, "specialfac": 0, "repvalue": 1982181.3270233134, "expstr": "AdobeBrick+MC+4s+Res", "fptarea": 49.55453317558283, "occbld": "Res", "lrstype": "AdobeBrick", "codelevel": "MC", "nstoreys": 4, "unit_price": 10000.0, "nhouse": 4, "residents": 14}, "geometry": {"type": "Polygon", "coordinates": [[[34.72932549037633, 3.7569166437523216], [34.72937438922459, 3.756895122789921], [34.729420487863216, 3.756975212113262], [34.729371589018136, 3.7569967330756637], [34.72932549037633, 3.7569166437523216]]]}}, {"id": "40", "type": "Feature", "properties": {"zoneid": 15, "bldid": 66, "specialfac": 0, "repvalue": 3767452.452495018, "expstr": "RConcrete+MC+8s+Res", "fptarea": 47.093155656187726, "occbld": "Res", "lrstype": "RConcrete", "codelevel": "MC", "nstoreys": 8, "unit_price": 10000.0, "nhouse": 2, "residents": 7}, "geometry": {"type": "Polygon", "coordinates": [[[34.72923696060511, 3.757020866500919], [34.729285995724204, 3.7570859093219022], [34.72923612494528, 3.757114885039963], [34.72918708982214, 3.7570498422189806], [34.72923696060511, 3.757020866500919]]]}}, {"id": "41", "type": "Feature", "properties": {"zoneid": 15, "bldid": 59, "specialfac": 0, "repvalue": 886171.7988356291, "expstr": "TimberIronsheet+MC+2s+Res", "fptarea": 44.308589941781456, "occbld": "Res", "lrstype": "TimberIronsheet", "codelevel": "MC", "nstoreys": 2, "unit_price": 10000.0, "nhouse": 2, "residents": 7}, "geometry": {"type": "Polygon", "coordinates": [[[34.72914419426102, 3.7569597392896386], [34.729081138585165, 3.7569875793591176], [34.72904911603149, 3.7569321165759537], [34.72911217171019, 3.756904276506475], [34.72914419426102, 3.7569597392896386]]]}}, {"id": "42", "type": "Feature", "properties": {"zoneid": 15, "bldid": 63, "specialfac": 0, "repvalue": 415468.52855170314, "expstr": "TimberMud+MC+1s+Res", "fptarea": 41.546852855170314, "occbld": "Res", "lrstype": "TimberMud", "codelevel": "MC", "nstoreys": 1, "unit_price": 10000.0, "nhouse": 1, "residents": 4}, "geometry": {"type": "Polygon", "coordinates": [[[34.72918719877761, 3.756681958334874], [34.72923926488981, 3.756659043426482], [34.72927556315354, 3.756722106180125], [34.729223497043996, 3.756745021088517], [34.72918719877761, 3.756681958334874]]]}}, {"id": "43", "type": "Feature", "properties": {"zoneid": 15, "bldid": 67, "specialfac": 0, "repvalue": 820863.5363001704, "expstr": "TimberIronsheet+MC+2s+Res", "fptarea": 41.043176815008515, "occbld": "Res", "lrstype": "TimberIronsheet", "codelevel": "MC", "nstoreys": 2, "unit_price": 10000.0, "nhouse": 2, "residents": 8}, "geometry": {"type": "Polygon", "coordinates": [[[34.72937296682107, 3.75702316505116], [34.72942090823757, 3.757086757121131], [34.729376452714945, 3.7571125864897246], [34.729328511294916, 3.757048994419754], [34.72937296682107, 3.75702316505116]]]}}, {"id": "44", "type": "Feature", "properties": {"zoneid": 16, "bldid": 86, "specialfac": 0, "repvalue": 763731.3919267609, "expstr": "TimberIronsheet+MC+1s+Res", "fptarea": 76.37313919267609, "occbld": "Res", "lrstype": "TimberIronsheet", "codelevel": "MC", "nstoreys": 1, "unit_price": 10000.0, "nhouse": 2, "residents": 8}, "geometry": {"type": "Polygon", "coordinates": [[[34.73001692114787, 3.7581562259104806], [34.73013049094066, 3.758106217595571], [34.73016108990833, 3.758159352666455], [34.73004752012046, 3.7582093609813656], [34.73001692114787, 3.7581562259104806]]]}}, {"id": "45", "type": "Feature", "properties": {"zoneid": 16, "bldid": 79, "specialfac": 0, "repvalue": 2283216.507970124, "expstr": "TimberIronsheet+MC+3s+Res", "fptarea": 76.10721693233747, "occbld": "Res", "lrstype": "TimberIronsheet", "codelevel": "MC", "nstoreys": 3, "unit_price": 10000.0, "nhouse": 6, "residents": 17}, "geometry": {"type": "Polygon", "coordinates": [[[34.729586862975076, 3.757692477578106], [34.72951362019415, 3.7577246995531466], [34.72946636330759, 3.7576425659921924], [34.729539606093404, 3.757610344017153], [34.729586862975076, 3.757692477578106]]]}}, {"id": "46", "type": "Feature", "properties": {"zoneid": 16, "bldid": 89, "specialfac": 0, "repvalue": 1521054.9845548377, "expstr": "TimberIronsheet+MC+2s+Res", "fptarea": 76.05274922774188, "occbld": "Res", "lrstype": "TimberIronsheet", "codelevel": "MC", "nstoreys": 2, "unit_price": 10000.0, "nhouse": 4, "residents": 13}, "geometry": {"type": "Polygon", "coordinates": [[[34.72944526594296, 3.757575565639612], [34.729378810535906, 3.7576048016162757], [34.72932676440724, 3.7575143441790395], [34.729393219819165, 3.7574851082023777], [34.72944526594296, 3.757575565639612]]]}}, {"id": "47", "type": "Feature", "properties": {"zoneid": 16, "bldid": 74, "specialfac": 0, "repvalue": 5305740.835008098, "expstr": "RConcrete+MC+7s+Res", "fptarea": 75.79629764297283, "occbld": "Res", "lrstype": "RConcrete", "codelevel": "MC", "nstoreys": 7, "unit_price": 10000.0, "nhouse": 14, "residents": 39}, "geometry": {"type": "Polygon", "coordinates": [[[34.72988771397549, 3.7578801856285233], [34.72995195463161, 3.7578518984740845], [34.730005641311124, 3.7579451254450897], [34.72994140065986, 3.757973412599528], [34.72988771397549, 3.7578801856285233]]]}}, {"id": "48", "type": "Feature", "properties": {"zoneid": 16, "bldid": 84, "specialfac": 0, "repvalue": 757896.8107585568, "expstr": "AdobeBrick+MC+1s+Res", "fptarea": 75.78968107585568, "occbld": "Res", "lrstype": "AdobeBrick", "codelevel": "MC", "nstoreys": 1, "unit_price": 10000.0, "nhouse": 2, "residents": 5}, "geometry": {"type": "Polygon", "coordinates": [[[34.72972580244558, 3.757691590224871], [34.72965163138607, 3.757724220581822], [34.72960516063209, 3.7576434533454237], [34.72967933169647, 3.7576108229884717], [34.72972580244558, 3.757691590224871]]]}}, {"id": "49", "type": "Feature", "properties": {"zoneid": 16, "bldid": 78, "specialfac": 0, "repvalue": 2220588.2186460844, "expstr": "TimberMud+MC+3s+Res", "fptarea": 74.01960728820282, "occbld": "Res", "lrstype": "TimberMud", "codelevel": "MC", "nstoreys": 3, "unit_price": 10000.0, "nhouse": 6, "residents": 21}, "geometry": {"type": "Polygon", "coordinates": [[[34.729873923200344, 3.7580466157552577], [34.72978162759165, 3.7580872197255766], [34.729745154669665, 3.758023829070014], [34.729837450283114, 3.757983225099696], [34.729873923200344, 3.7580466157552577]]]}}, {"id": "50", "type": "Feature", "properties": {"zoneid": 16, "bldid": 90, "specialfac": 0, "repvalue": 4251326.431259448, "expstr": "TimberMud+MC+6s+Res", "fptarea": 70.8554405209908, "occbld": "Res", "lrstype": "TimberMud", "codelevel": "MC", "nstoreys": 6, "unit_price": 10000.0, "nhouse": 3, "residents": 11}, "geometry": {"type": "Polygon", "coordinates": [[[34.72960417463334, 3.7575259778292813], [34.72968179116409, 3.757491800872531], [34.72972332927747, 3.7575639319893623], [34.729645712751264, 3.7575981089461137], [34.72960417463334, 3.7575259778292813]]]}}, {"id": "51", "type": "Feature", "properties": {"zoneid": 16, "bldid": 73, "specialfac": 0, "repvalue": 1394332.1025329453, "expstr": "AdobeBrick+MC+2s+Res", "fptarea": 69.71660512664727, "occbld": "Res", "lrstype": "AdobeBrick", "codelevel": "MC", "nstoreys": 2, "unit_price": 10000.0, "nhouse": 4, "residents": 9}, "geometry": {"type": "Polygon", "coordinates": [[[34.72972565040442, 3.7579421265147754], [34.729662204216325, 3.757970038643109], [34.72961223123587, 3.757883184558832], [34.729675677428446, 3.757855272430499], [34.72972565040442, 3.7579421265147754]]]}}, {"id": "52", "type": "Feature", "properties": {"zoneid": 16, "bldid": 77, "specialfac": 0, "repvalue": 5345388.581486968, "expstr": "RConcrete+MC+8s+Res", "fptarea": 66.8173572685871, "occbld": "Res", "lrstype": "RConcrete", "codelevel": "MC", "nstoreys": 8, "unit_price": 10000.0, "nhouse": 16, "residents": 52}, "geometry": {"type": "Polygon", "coordinates": [[[34.72959324096475, 3.7574225638322427], [34.72970313912506, 3.757374172280292], [34.729730803854764, 3.7574222122347605], [34.72962090569876, 3.757470603786712], [34.72959324096475, 3.7574225638322427]]]}}, {"id": "53", "type": "Feature", "properties": {"zoneid": 16, "bldid": 87, "specialfac": 0, "repvalue": 633021.3819000508, "expstr": "RConcrete+MC+1s+Res", "fptarea": 63.30213819000508, "occbld": "Res", "lrstype": "RConcrete", "codelevel": "MC", "nstoreys": 1, "unit_price": 10000.0, "nhouse": 2, "residents": 8}, "geometry": {"type": "Polygon", "coordinates": [[[34.72974541261959, 3.757781558647705], [34.72983436593844, 3.7577423897447813], [34.72986674650759, 3.757798618674239], [34.72977779319281, 3.757837787577163], [34.72974541261959, 3.757781558647705]]]}}, {"id": "54", "type": "Feature", "properties": {"zoneid": 16, "bldid": 82, "specialfac": 0, "repvalue": 2513505.923124144, "expstr": "AdobeBrick+MC+4s+Res", "fptarea": 62.8376480781036, "occbld": "Res", "lrstype": "AdobeBrick", "codelevel": "MC", "nstoreys": 4, "unit_price": 10000.0, "nhouse": 8, "residents": 22}, "geometry": {"type": "Polygon", "coordinates": [[[34.730004073216435, 3.7581849926736077], [34.72994297126318, 3.758211873499551], [34.72989620099228, 3.758130585903329], [34.72995730294956, 3.7581037050773856], [34.730004073216435, 3.7581849926736077]]]}}, {"id": "55", "type": "Feature", "properties": {"zoneid": 16, "bldid": 85, "specialfac": 0, "repvalue": 3513803.6269741515, "expstr": "RConcrete+MC+6s+Res", "fptarea": 58.56339378290252, "occbld": "Res", "lrstype": "RConcrete", "codelevel": "MC", "nstoreys": 6, "unit_price": 10000.0, "nhouse": 6, "residents": 10}, "geometry": {"type": "Polygon", "coordinates": [[[34.73003897328448, 3.7582509639079253], [34.73009455175384, 3.7582264909760106], [34.73014249736537, 3.758309748420692], [34.73008691889979, 3.758334221352607], [34.73003897328448, 3.7582509639079253]]]}}, {"id": "56", "type": "Feature", "properties": {"zoneid": 16, "bldid": 80, "specialfac": 0, "repvalue": 2911726.188302104, "expstr": "AdobeBrick+MC+5s+Res", "fptarea": 58.23452376604208, "occbld": "Res", "lrstype": "AdobeBrick", "codelevel": "MC", "nstoreys": 5, "unit_price": 10000.0, "nhouse": 5, "residents": 14}, "geometry": {"type": "Polygon", "coordinates": [[[34.729492478016056, 3.757348485099538], [34.72945916167257, 3.757304861448437], [34.72955037104177, 3.7572511572158285], [34.72958368738021, 3.7572947808669266], [34.729492478016056, 3.757348485099538]]]}}, {"id": "57", "type": "Feature", "properties": {"zoneid": 16, "bldid": 81, "specialfac": 0, "repvalue": 4026294.7304166914, "expstr": "RConcrete+MC+7s+Res", "fptarea": 57.51849614880988, "occbld": "Res", "lrstype": "RConcrete", "codelevel": "MC", "nstoreys": 7, "unit_price": 10000.0, "nhouse": 7, "residents": 18}, "geometry": {"type": "Polygon", "coordinates": [[[34.72957724346943, 3.757566728767266], [34.7295136711476, 3.7575946963779083], [34.72947252366036, 3.757523181051378], [34.729536095985885, 3.7574952134407353], [34.72957724346943, 3.757566728767266]]]}}, {"id": "58", "type": "Feature", "properties": {"zoneid": 16, "bldid": 72, "specialfac": 0, "repvalue": 3227283.9218823, "expstr": "TimberMud+MC+6s+Res", "fptarea": 53.788065364705005, "occbld": "Res", "lrstype": "TimberMud", "codelevel": "MC", "nstoreys": 6, "unit_price": 10000.0, "nhouse": 6, "residents": 19}, "geometry": {"type": "Polygon", "coordinates": [[[34.73010935097834, 3.7583562957124292], [34.73014795851514, 3.7584074440516053], [34.73007557933979, 3.7584495503678625], [34.73003697179838, 3.7583984020286865], [34.73010935097834, 3.7583562957124292]]]}}, {"id": "59", "type": "Feature", "properties": {"zoneid": 16, "bldid": 93, "specialfac": 0, "repvalue": 2048894.7870681034, "expstr": "TimberIronsheet+MC+4s+Res", "fptarea": 51.222369676702584, "occbld": "Res", "lrstype": "TimberIronsheet", "codelevel": "MC", "nstoreys": 4, "unit_price": 10000.0, "nhouse": 2, "residents": 8}, "geometry": {"type": "Polygon", "coordinates": [[[34.73003691873514, 3.7580181751081643], [34.73010159778736, 3.7579896949107736], [34.730137632808656, 3.758052269717112], [34.73007295375972, 3.7580807499145026], [34.73003691873514, 3.7580181751081643]]]}}, {"id": "60", "type": "Feature", "properties": {"zoneid": 16, "bldid": 76, "specialfac": 0, "repvalue": 987740.7847171733, "expstr": "Masonry+MC+2s+Res", "fptarea": 49.387039235858666, "occbld": "Res", "lrstype": "Masonry", "codelevel": "MC", "nstoreys": 2, "unit_price": 10000.0, "nhouse": 2, "residents": 8}, "geometry": {"type": "Polygon", "coordinates": [[[34.72950939516248, 3.7574673496824507], [34.729470557496434, 3.757416496561288], [34.729536912894176, 3.7573774263845516], [34.72957575055594, 3.757428279505712], [34.72950939516248, 3.7574673496824507]]]}}, {"id": "61", "type": "Feature", "properties": {"zoneid": 16, "bldid": 91, "specialfac": 0, "repvalue": 1417835.5977100716, "expstr": "TimberIronsheet+MC+3s+Res", "fptarea": 47.26118659033572, "occbld": "Res", "lrstype": "TimberIronsheet", "codelevel": "MC", "nstoreys": 3, "unit_price": 10000.0, "nhouse": 3, "residents": 11}, "geometry": {"type": "Polygon", "coordinates": [[[34.729862067484724, 3.758294698723426], [34.72979692345603, 3.758323357797253], [34.72976392943414, 3.758266013605184], [34.72982907346587, 3.7582373545313557], [34.729862067484724, 3.758294698723426]]]}}, {"id": "62", "type": "Feature", "properties": {"zoneid": 16, "bldid": 88, "specialfac": 0, "repvalue": 1379793.9016516022, "expstr": "TimberIronsheet+MC+3s+Res", "fptarea": 45.99313005505341, "occbld": "Res", "lrstype": "TimberIronsheet", "codelevel": "MC", "nstoreys": 3, "unit_price": 10000.0, "nhouse": 3, "residents": 7}, "geometry": {"type": "Polygon", "coordinates": [[[34.73009089809259, 3.7584775608042804], [34.730143187807506, 3.7585468356402534], [34.73009749197, 3.7585734190276874], [34.73004520225114, 3.7585041441917135], [34.73009089809259, 3.7584775608042804]]]}}, {"id": "63", "type": "Feature", "properties": {"zoneid": 16, "bldid": 75, "specialfac": 0, "repvalue": 2446760.813206795, "expstr": "AdobeBrick+MC+6s+Res", "fptarea": 40.77934688677992, "occbld": "Res", "lrstype": "AdobeBrick", "codelevel": "MC", "nstoreys": 6, "unit_price": 10000.0, "nhouse": 6, "residents": 19}, "geometry": {"type": "Polygon", "coordinates": [[[34.72971893340983, 3.757792463400644], [34.72963856477464, 3.757827820283191], [34.72961548890787, 3.757787713921304], [34.729695857545686, 3.757752357038757], [34.72971893340983, 3.757792463400644]]]}}, {"id": "64", "type": "Feature", "properties": {"zoneid": 16, "bldid": 83, "specialfac": 0, "repvalue": 2009246.4516423803, "expstr": "TimberMud+MC+5s+Res", "fptarea": 40.184929032847606, "occbld": "Res", "lrstype": "TimberMud", "codelevel": "MC", "nstoreys": 5, "unit_price": 10000.0, "nhouse": 5, "residents": 16}, "geometry": {"type": "Polygon", "coordinates": [[[34.72985438822053, 3.7581796396986515], [34.72980563402993, 3.7582010883234602], [34.72976814913659, 3.7581359388782833], [34.72981690332976, 3.758114490253477], [34.72985438822053, 3.7581796396986515]]]}}, {"id": "65", "type": "Feature", "properties": {"zoneid": 16, "bldid": 92, "specialfac": 0, "repvalue": 1605939.0759578613, "expstr": "TimberIronsheet+MC+4s+Res", "fptarea": 40.148476898946534, "occbld": "Res", "lrstype": "TimberIronsheet", "codelevel": "MC", "nstoreys": 4, "unit_price": 10000.0, "nhouse": 4, "residents": 12}, "geometry": {"type": "Polygon", "coordinates": [[[34.7300012807212, 3.7584108258943107], [34.72993243367648, 3.758441114054084], [34.729905912714365, 3.758395020185976], [34.72997475976167, 3.758364732026203], [34.7300012807212, 3.7584108258943107]]]}}, {"id": "66", "type": "Feature", "properties": {"zoneid": 17, "bldid": 104, "specialfac": 0, "repvalue": 688528.5967816727, "expstr": "RConcrete+MC+1s+Res", "fptarea": 68.85285967816726, "occbld": "Res", "lrstype": "RConcrete", "codelevel": "MC", "nstoreys": 1, "unit_price": 10000.0, "nhouse": 2, "residents": 6}, "geometry": {"type": "Polygon", "coordinates": [[[34.72728890650104, 3.758812579693363], [34.727373864540674, 3.7587784059239544], [34.72740879968917, 3.7588446268028988], [34.72732384165347, 3.758878800572308], [34.72728890650104, 3.758812579693363]]]}}, {"id": "67", "type": "Feature", "properties": {"zoneid": 17, "bldid": 105, "specialfac": 0, "repvalue": 681596.9164947079, "expstr": "RConcrete+MC+1s+Res", "fptarea": 68.15969164947079, "occbld": "Res", "lrstype": "RConcrete", "codelevel": "MC", "nstoreys": 1, "unit_price": 10000.0, "nhouse": 2, "residents": 6}, "geometry": {"type": "Polygon", "coordinates": [[[34.727159470175195, 3.7588077907963244], [34.72723627055577, 3.758776898388196], [34.7272745274145, 3.7588494156999332], [34.72719772703782, 3.7588803081080617], [34.727159470175195, 3.7588077907963244]]]}}, {"id": "68", "type": "Feature", "properties": {"zoneid": 17, "bldid": 107, "specialfac": 0, "repvalue": 1218456.0117931967, "expstr": "RConcrete+MC+2s+Res", "fptarea": 60.92280058965983, "occbld": "Res", "lrstype": "RConcrete", "codelevel": "MC", "nstoreys": 2, "unit_price": 10000.0, "nhouse": 4, "residents": 13}, "geometry": {"type": "Polygon", "coordinates": [[[34.72715655650838, 3.758582257409086], [34.72723902776839, 3.758549083934565], [34.72727087134366, 3.758609444700395], [34.72718840008715, 3.758642618174916], [34.72715655650838, 3.758582257409086]]]}}, {"id": "69", "type": "Feature", "properties": {"zoneid": 17, "bldid": 109, "specialfac": 0, "repvalue": 2972608.276851108, "expstr": "RConcrete+MC+5s+Res", "fptarea": 59.452165537022154, "occbld": "Res", "lrstype": "RConcrete", "codelevel": "MC", "nstoreys": 5, "unit_price": 10000.0, "nhouse": 2, "residents": 8}, "geometry": {"type": "Polygon", "coordinates": [[[34.727237157282396, 3.759012670559563], [34.727277010884436, 3.7590721778286285], [34.727203410323206, 3.7591100403234874], [34.72716355671662, 3.759050533054422], [34.727237157282396, 3.759012670559563]]]}}, {"id": "70", "type": "Feature", "properties": {"zoneid": 17, "bldid": 108, "specialfac": 0, "repvalue": 2899062.5199921285, "expstr": "RConcrete+MC+5s+Res", "fptarea": 57.981250399842565, "occbld": "Res", "lrstype": "RConcrete", "codelevel": "MC", "nstoreys": 5, "unit_price": 10000.0, "nhouse": 2, "residents": 6}, "geometry": {"type": "Polygon", "coordinates": [[[34.72693799697923, 3.7587609550168075], [34.72689640120373, 3.758699079995042], [34.726965298533614, 3.758663499286062], [34.72700689430466, 3.7587253743078257], [34.72693799697923, 3.7587609550168075]]]}}, {"id": "71", "type": "Feature", "properties": {"zoneid": 17, "bldid": 103, "specialfac": 0, "repvalue": 2244358.879692976, "expstr": "TimberIronsheet+MC+4s+Res", "fptarea": 56.1089719923244, "occbld": "Res", "lrstype": "TimberIronsheet", "codelevel": "MC", "nstoreys": 4, "unit_price": 10000.0, "nhouse": 4, "residents": 11}, "geometry": {"type": "Polygon", "coordinates": [[[34.727159126111246, 3.7587015629611447], [34.72724261741484, 3.75866797917891], [34.72727158657432, 3.758722891341725], [34.72718809527393, 3.758756475123959], [34.727159126111246, 3.7587015629611447]]]}}, {"id": "72", "type": "Feature", "properties": {"zoneid": 17, "bldid": 102, "specialfac": 0, "repvalue": 1558589.8777186628, "expstr": "TimberIronsheet+MC+3s+Res", "fptarea": 51.95299592395543, "occbld": "Res", "lrstype": "TimberIronsheet", "codelevel": "MC", "nstoreys": 3, "unit_price": 10000.0, "nhouse": 3, "residents": 10}, "geometry": {"type": "Polygon", "coordinates": [[[34.72713391361225, 3.7589759328276906], [34.72708174878038, 3.7589962670531296], [34.727039660337155, 3.7589140258619698], [34.727091825171875, 3.758893691636531], [34.72713391361225, 3.7589759328276906]]]}}, {"id": "73", "type": "Feature", "properties": {"zoneid": 17, "bldid": 106, "specialfac": 0, "repvalue": 2291151.494679965, "expstr": "AdobeBrick+MC+5s+Res", "fptarea": 45.8230298935993, "occbld": "Res", "lrstype": "AdobeBrick", "codelevel": "MC", "nstoreys": 5, "unit_price": 10000.0, "nhouse": 5, "residents": 13}, "geometry": {"type": "Polygon", "coordinates": [[[34.7269976374375, 3.758856847620746], [34.726947795161635, 3.758876276495439], [34.7269089429508, 3.7588003588755114], [34.726958785229186, 3.7587809300008197], [34.7269976374375, 3.758856847620746]]]}}, {"id": "74", "type": "Feature", "properties": {"zoneid": 18, "bldid": 112, "specialfac": 0, "repvalue": 792357.1057832878, "expstr": "Masonry+MC+1s+Res", "fptarea": 79.23571057832878, "occbld": "Res", "lrstype": "Masonry", "codelevel": "MC", "nstoreys": 1, "unit_price": 10000.0, "nhouse": 2, "residents": 6}, "geometry": {"type": "Polygon", "coordinates": [[[34.727650082305274, 3.7584670363826596], [34.72775582768373, 3.758424502574542], [34.72778812707995, 3.758485729492072], [34.72768238170603, 3.75852826330019], [34.727650082305274, 3.7584670363826596]]]}}, {"id": "75", "type": "Feature", "properties": {"zoneid": 18, "bldid": 114, "specialfac": 0, "repvalue": 3577045.6518062786, "expstr": "TimberMud+MC+5s+Res", "fptarea": 71.54091303612557, "occbld": "Res", "lrstype": "TimberMud", "codelevel": "MC", "nstoreys": 5, "unit_price": 10000.0, "nhouse": 9, "residents": 23}, "geometry": {"type": "Polygon", "coordinates": [[[34.72763567522633, 3.7586329012461777], [34.72757043036554, 3.758659145506493], [34.727523163949925, 3.758569550098218], [34.72758840881481, 3.758543305837904], [34.72763567522633, 3.7586329012461777]]]}}, {"id": "76", "type": "Feature", "properties": {"zoneid": 18, "bldid": 115, "specialfac": 0, "repvalue": 1425604.0700096935, "expstr": "TimberIronsheet+MC+2s+Res", "fptarea": 71.28020350048467, "occbld": "Res", "lrstype": "TimberIronsheet", "codelevel": "MC", "nstoreys": 2, "unit_price": 10000.0, "nhouse": 2, "residents": 7}, "geometry": {"type": "Polygon", "coordinates": [[[34.72755357061984, 3.7584042417912933], [34.72751247985648, 3.758343118316348], [34.72759822108369, 3.7582988386137663], [34.72763931184158, 3.75835996208871], [34.72755357061984, 3.7584042417912933]]]}}, {"id": "77", "type": "Feature", "properties": {"zoneid": 18, "bldid": 110, "specialfac": 0, "repvalue": 2014942.310756504, "expstr": "TimberMud+MC+4s+Res", "fptarea": 50.373557768912605, "occbld": "Res", "lrstype": "TimberMud", "codelevel": "MC", "nstoreys": 4, "unit_price": 10000.0, "nhouse": 4, "residents": 14}, "geometry": {"type": "Polygon", "coordinates": [[[34.72773741505238, 3.758805563176974], [34.72777591685827, 3.758863052043762], [34.72771136594949, 3.7588962591067685], [34.727672864139734, 3.7588387702399833], [34.72773741505238, 3.758805563176974]]]}}, {"id": "78", "type": "Feature", "properties": {"zoneid": 18, "bldid": 111, "specialfac": 0, "repvalue": 947244.9768601537, "expstr": "AdobeBrick+MC+2s+Res", "fptarea": 47.362248843007684, "occbld": "Res", "lrstype": "AdobeBrick", "codelevel": "MC", "nstoreys": 2, "unit_price": 10000.0, "nhouse": 2, "residents": 7}, "geometry": {"type": "Polygon", "coordinates": [[[34.727408689378095, 3.758518793537685], [34.727380547413524, 3.758476931723092], [34.72746373203133, 3.7584339723370364], [34.72749187399226, 3.75847583415163], [34.727408689378095, 3.758518793537685]]]}}, {"id": "79", "type": "Feature", "properties": {"zoneid": 18, "bldid": 113, "specialfac": 0, "repvalue": 844520.4994591174, "expstr": "RConcrete+MC+2s+Res", "fptarea": 42.22602497295587, "occbld": "Res", "lrstype": "RConcrete", "codelevel": "MC", "nstoreys": 2, "unit_price": 10000.0, "nhouse": 2, "residents": 6}, "geometry": {"type": "Polygon", "coordinates": [[[34.727813633501924, 3.758591810708404], [34.7278857564312, 3.758562800805552], [34.727910993678336, 3.758610640635995], [34.72783887075147, 3.7586396505388477], [34.727813633501924, 3.758591810708404]]]}}, {"id": "80", "type": "Feature", "properties": {"zoneid": 19, "bldid": 122, "specialfac": 0, "repvalue": 4392566.41063291, "expstr": "RConcrete+MC+7s+Res", "fptarea": 62.75094872332729, "occbld": "Res", "lrstype": "RConcrete", "codelevel": "MC", "nstoreys": 7, "unit_price": 10000.0, "nhouse": 14, "residents": 45}, "geometry": {"type": "Polygon", "coordinates": [[[34.728098951238046, 3.7583023906093325], [34.72820046236448, 3.758261559650235], [34.72822710904942, 3.758312070937482], [34.72812559792658, 3.7583529018965796], [34.728098951238046, 3.7583023906093325]]]}}, {"id": "81", "type": "Feature", "properties": {"zoneid": 19, "bldid": 121, "specialfac": 0, "repvalue": 2486097.4652121337, "expstr": "TimberMud+MC+6s+Res", "fptarea": 41.43495775353556, "occbld": "Res", "lrstype": "TimberMud", "codelevel": "MC", "nstoreys": 6, "unit_price": 10000.0, "nhouse": 6, "residents": 15}, "geometry": {"type": "Polygon", "coordinates": [[[34.72811762050253, 3.758176794248228], [34.728173124617435, 3.758154468753857], [34.72820530402535, 3.758215467869298], [34.72814979991282, 3.758237793363669], [34.72811762050253, 3.758176794248228]]]}}, {"id": "82", "type": "Feature", "properties": {"zoneid": 20, "bldid": 123, "specialfac": 0, "repvalue": 2371806.4493121933, "expstr": "TimberIronsheet+MC+3s+Res", "fptarea": 79.06021497707312, "occbld": "Res", "lrstype": "TimberIronsheet", "codelevel": "MC", "nstoreys": 3, "unit_price": 10000.0, "nhouse": 6, "residents": 17}, "geometry": {"type": "Polygon", "coordinates": [[[34.72864027088168, 3.758057449230389], [34.728710856946414, 3.7580299340432797], [34.72875819061837, 3.758122423986406], [34.72868760455797, 3.758149939173518], [34.72864027088168, 3.758057449230389]]]}}, {"id": "83", "type": "Feature", "properties": {"zoneid": 20, "bldid": 125, "specialfac": 0, "repvalue": 4080813.2056410643, "expstr": "RConcrete+MC+6s+Res", "fptarea": 68.01355342735107, "occbld": "Res", "lrstype": "RConcrete", "codelevel": "MC", "nstoreys": 6, "unit_price": 10000.0, "nhouse": 11, "residents": 32}, "geometry": {"type": "Polygon", "coordinates": [[[34.72862047042948, 3.758356452680622], [34.72853799923011, 3.758389625053993], [34.72850245011429, 3.7583222381518557], [34.72858492131756, 3.758289065778486], [34.72862047042948, 3.758356452680622]]]}}, {"id": "84", "type": "Feature", "properties": {"zoneid": 20, "bldid": 126, "specialfac": 0, "repvalue": 4404577.117610234, "expstr": "RConcrete+MC+8s+Res", "fptarea": 55.057213970127926, "occbld": "Res", "lrstype": "RConcrete", "codelevel": "MC", "nstoreys": 8, "unit_price": 10000.0, "nhouse": 1, "residents": 4}, "geometry": {"type": "Polygon", "coordinates": [[[34.72870432119691, 3.7581638474142514], [34.7287532160462, 3.758236854862968], [34.728697660046585, 3.758265434610388], [34.72864876519308, 3.7581924271616702], [34.72870432119691, 3.7581638474142514]]]}}, {"id": "85", "type": "Feature", "properties": {"zoneid": 20, "bldid": 124, "specialfac": 0, "repvalue": 2173246.947902477, "expstr": "Masonry+MC+4s+Res", "fptarea": 54.33117369756192, "occbld": "Res", "lrstype": "Masonry", "codelevel": "MC", "nstoreys": 4, "unit_price": 10000.0, "nhouse": 4, "residents": 13}, "geometry": {"type": "Polygon", "coordinates": [[[34.72872636319489, 3.7582937801047978], [34.728759655187865, 3.758343490090185], [34.72867913786711, 3.75838491072768], [34.72864584586998, 3.7583352007422937], [34.72872636319489, 3.7582937801047978]]]}}]}