{
"type": "FeatureCollection",
"name": "exclusion_lines",
"crs": { "type": "name", "properties": { "name": "urn:ogc:def:crs:OGC:1.3:CRS84" } },
"features": [
{ "type": "Feature", "properties": { "id": 2, "setback": 5 }, "geometry": { "type": "MultiLineString", "coordinates": [ [ [ 26.91337567212598, 40.398592419502648 ], [ 26.913999558905019, 40.398672404987138 ], [ 26.914735425362345, 40.398640410793341 ], [ 26.915183344075501, 40.398304471758479 ], [ 26.915183344075501, 40.398296473210024 ] ] ] } },
{ "type": "Feature", "properties": { "id": 1, "setback": 0 }, "geometry": { "type": "MultiLineString", "coordinates": [ [ [ 26.913094358206298, 40.399939359188032 ], [ 26.913269936201328, 40.399566255948585 ], [ 26.913566224067949, 40.399324836205416 ], [ 26.913708674236233, 40.398635112080882 ], [ 26.913818617435808, 40.397986053993286 ], [ 26.913906406433323, 40.397459320008188 ] ] ] } },
{ "type": "Feature", "properties": { "id": 3, "setback": 0 }, "geometry": { "type": "MultiLineString", "coordinates": [ [ [ 26.90793123740557, 40.400105875754583 ], [ 26.908770750078602, 40.400367330550921 ], [ 26.909231642315564, 40.40025759430403 ], [ 26.909363325811839, 40.399862543815203 ], [ 26.910021743293214, 40.400005200936171 ], [ 26.910109532290729, 40.399599176822655 ], [ 26.909549877431562, 40.399467493326377 ], [ 26.909647965301751, 40.399053286904632 ], [ 26.909647965301751, 40.399053286904632 ] ] ] } },
{ "type": "Feature", "properties": { "id": 4, "setback": 5 }, "geometry": { "type": "MultiLineString", "coordinates": [ [ [ 26.910021743293214, 40.400005200936171 ], [ 26.909944927920385, 40.40026856792872 ], [ 26.910366510703341, 40.400347139044307 ] ] ] } }
]
}
