{
"type": "FeatureCollection",
"name": "exclusion_polygons",
"crs": { "type": "name", "properties": { "name": "urn:ogc:def:crs:OGC:1.3:CRS84" } },
"features": [
{ "type": "Feature", "properties": { "id": 1, "setback": 0, "population": 100 }, "geometry": { "type": "MultiPolygon", "coordinates": [ [ [ [ 26.912071908728759, 40.398928358537511 ], [ 26.912879762122131, 40.399016342570455 ], [ 26.913183706963199, 40.3975766038496 ], [ 26.912303866633788, 40.397424631429061 ], [ 26.912071908728759, 40.398928358537511 ] ] ] ] } },
{ "type": "Feature", "properties": { "id": 2, "setback": 5, "population": 0 }, "geometry": { "type": "MultiPolygon", "coordinates": [ [ [ [ 26.910856129364483, 40.399280294669282 ], [ 26.910336223715284, 40.399472259832059 ], [ 26.91046420049047, 40.399880185802971 ], [ 26.910648167104803, 40.399904181448321 ], [ 26.910784142428437, 40.399880185802971 ], [ 26.910728152589293, 40.399544246768102 ], [ 26.910856129364483, 40.399280294669282 ] ] ] ] } }
]
}
