{
"type": "FeatureCollection",
"name": "exclusion_points",
"crs": { "type": "name", "properties": { "name": "urn:ogc:def:crs:OGC:1.3:CRS84" } },
"features": [
{ "type": "Feature", "properties": { "id": 1, "setback": 0 }, "geometry": { "type": "Point", "coordinates": [ 26.912831770831435, 40.399856190157621 ] } },
{ "type": "Feature", "properties": { "id": 2, "setback": 0 }, "geometry": { "type": "Point", "coordinates": [ 26.913367673577532, 40.399880185802971 ] } },
{ "type": "Feature", "properties": { "id": 3, "setback": 10 }, "geometry": { "type": "Point", "coordinates": [ 26.91377559954844, 40.399072332409602 ] } },
{ "type": "Feature", "properties": { "id": 5, "setback": 0 }, "geometry": { "type": "Point", "coordinates": [ 26.91438348923058, 40.39908033095805 ] } },
{ "type": "Feature", "properties": { "id": 4, "setback": 10 }, "geometry": { "type": "Point", "coordinates": [ 26.913255693899242, 40.399296291766177 ] } },
{ "type": "Feature", "properties": { "id": 6, "setback": 0 }, "geometry": { "type": "Point", "coordinates": [ 26.913711611160849, 40.399472259832059 ] } }
]
}
