{
"type": "FeatureCollection",
"name": "sample_landuse_file",
"crs": { "type": "name", "properties": { "name": "urn:ogc:def:crs:OGC:1.3:CRS84" } },
"features": [
{ "type": "Feature", "properties": { "zoneid": 1, "luf": "Low Density Residential Area", "population": 0, "avgincome": "highIncome", "setback": 5.0, "densitycap": 50.0 }, "geometry": { "type": "MultiPolygon", "coordinates": [ [ [ [ 26.90928608086417, 40.399035548402743 ], [ 26.909222578129192, 40.399370119531511 ], [ 26.908731830564204, 40.399308776085853 ], [ 26.90865821842938, 40.399517343801108 ], [ 26.908621412362017, 40.399971285299024 ], [ 26.908057052662194, 40.399860867096827 ], [ 26.907823947568801, 40.400314808594715 ], [ 26.908253351688185, 40.400535644999081 ], [ 26.908474188092555, 40.400756481403469 ], [ 26.909197326034008, 40.400849858188352 ], [ 26.909683097984708, 40.400655122291731 ], [ 26.910099544027954, 40.400663730113621 ], [ 26.910366510703327, 40.400347139975672 ], [ 26.910431839019299, 40.399945119570162 ], [ 26.910291131877379, 40.399507922379179 ], [ 26.909798656880884, 40.39906067467809 ], [ 26.90928608086417, 40.399035548402743 ] ] ] ] } },
{ "type": "Feature", "properties": { "zoneid": 2, "luf": "Medium Density Residential Area", "population": 0, "avgincome": "midIncome", "setback": 10.0, "densitycap": 150.0 }, "geometry": { "type": "MultiPolygon", "coordinates": [ [ [ [ 26.912424705991054, 40.39647470889615 ], [ 26.911835808912993, 40.399725911516221 ], [ 26.912203869586826, 40.399615493313981 ], [ 26.912486049436747, 40.399652299381387 ], [ 26.912890916177894, 40.39908793968133 ], [ 26.91343073849939, 40.396928650394052 ], [ 26.913283514229942, 40.396805963502715 ], [ 26.913025871758279, 40.396425634139639 ], [ 26.912424705991054, 40.39647470889615 ] ] ] ] } },
{ "type": "Feature", "properties": { "zoneid": 3, "luf": "High Density Residential Area", "population": 0, "avgincome": "lowIncomeA", "setback": 20.0, "densitycap": 300.0 }, "geometry": { "type": "MultiPolygon", "coordinates": [ [ [ [ 26.912486049436779, 40.399652300312738 ], [ 26.912621005017044, 40.400008091366232 ], [ 26.912424705991064, 40.40021665908148 ], [ 26.912535124193234, 40.400302539905411 ], [ 26.912829572732274, 40.40021665908148 ], [ 26.913393932432083, 40.400363883351055 ], [ 26.913995098199226, 40.400204390392332 ], [ 26.914326352805656, 40.399370119531326 ], [ 26.914768025614219, 40.39911247705961 ], [ 26.915111548909756, 40.399002058857398 ], [ 26.91549187827269, 40.398499042602971 ], [ 26.915823132879105, 40.398278206198597 ], [ 26.915504146961823, 40.397983757659382 ], [ 26.915086029251245, 40.398104267201937 ], [ 26.91476762909025, 40.398242562221427 ], [ 26.914632550234039, 40.398200752099292 ], [ 26.914504494171748, 40.397962655514121 ], [ 26.914433826522419, 40.397593613345009 ], [ 26.914582699703825, 40.397447566869602 ], [ 26.914115350982605, 40.397306859727657 ], [ 26.913768608383116, 40.397130975800259 ], [ 26.913430738499404, 40.396928651325418 ], [ 26.912890916177926, 40.399087940612674 ], [ 26.912486049436779, 40.399652300312738 ] ] ] ] } },
{ "type": "Feature", "properties": { "zoneid": 4, "luf": "Industrial Area", "population": 0, "avgincome": "0", "setback": 0.0, "densitycap": 0.0 }, "geometry": { "type": "MultiPolygon", "coordinates": [ [ [ [ 26.908057052662265, 40.399860867096834 ], [ 26.908621412362081, 40.399971285299024 ], [ 26.90865821842938, 40.399517343801108 ], [ 26.907663958097977, 40.39927982168939 ], [ 26.907336863119159, 40.399686480311921 ], [ 26.908057052662265, 40.399860867096834 ] ] ] ] } },
{ "type": "Feature", "properties": { "zoneid": 5, "luf": "Commercial Area", "population": 0, "avgincome": "0", "setback": 0.0, "densitycap": 0.0 }, "geometry": { "type": "MultiPolygon", "coordinates": [ [ [ [ 26.907663958098048, 40.399279821689383 ], [ 26.90865821842938, 40.399517343801108 ], [ 26.90873183056426, 40.399308776085846 ], [ 26.909222578129192, 40.399370119531511 ], [ 26.909286080864121, 40.399035547471421 ], [ 26.909170499997586, 40.398538047219674 ], [ 26.90887509356013, 40.398607950921701 ], [ 26.908105978339623, 40.398457664039441 ], [ 26.907663958098048, 40.399279821689383 ] ] ] ] } },
{ "type": "Feature", "properties": { "zoneid": 7, "luf": "School", "population": 0, "avgincome": "0", "setback": 5.0, "densitycap": 0.0 }, "geometry": { "type": "MultiPolygon", "coordinates": [ [ [ [ 26.911099687106464, 40.398535850718346 ], [ 26.909798657590994, 40.399060674391635 ], [ 26.910291131877386, 40.399507921447835 ], [ 26.910431839019228, 40.399945118638826 ], [ 26.910866582261693, 40.399946749782643 ], [ 26.910780701648427, 40.399566421351636 ], [ 26.911050612808918, 40.399112479853684 ], [ 26.911099687565653, 40.398535851464523 ], [ 26.911099687106464, 40.398535850718346 ] ] ] ] } },
{ "type": "Feature", "properties": { "zoneid": 6, "luf": "Hospital", "population": 0, "avgincome": "0", "setback": 5.0, "densitycap": 0.0 }, "geometry": { "type": "MultiPolygon", "coordinates": [ [ [ [ 26.911871990798772, 40.400703126868279 ], [ 26.911589097844093, 40.400278787436086 ], [ 26.911481489171248, 40.399957055482332 ], [ 26.911442229366077, 40.399807867291166 ], [ 26.911269486223237, 40.400051278083502 ], [ 26.91125378230095, 40.40028683784643 ], [ 26.910923999937534, 40.400436025106046 ], [ 26.91092399993753, 40.400436025106046 ], [ 26.910664885223095, 40.400373210349031 ], [ 26.910866582472188, 40.399946750714825 ], [ 26.910866582261693, 40.399946749782643 ], [ 26.910431839019228, 40.399945118638826 ], [ 26.910366510703341, 40.400347139044307 ], [ 26.910099544027954, 40.400663730113614 ], [ 26.910086229022337, 40.400818052131179 ], [ 26.910492887644693, 40.400950658203755 ], [ 26.911102875578276, 40.400915296584394 ], [ 26.911871990798772, 40.400703126868279 ] ] ] ] } },
{ "type": "Feature", "properties": { "zoneid": 8, "luf": "Agricultural Area", "population": 0, "avgincome": "0", "setback": 0.0, "densitycap": 0.0 }, "geometry": { "type": "MultiPolygon", "coordinates": [ [ [ [ 26.909798657590994, 40.399060674391635 ], [ 26.911099687106464, 40.398535850718346 ], [ 26.911099686887766, 40.398535850362961 ], [ 26.910608940000621, 40.397738387136549 ], [ 26.910792970337486, 40.397480744199115 ], [ 26.910633477378749, 40.397161758281655 ], [ 26.911148762321933, 40.396805966296796 ], [ 26.910927925918035, 40.39654832382503 ], [ 26.910339028839886, 40.396867310208208 ], [ 26.91040037228538, 40.396266143974934 ], [ 26.91022861063766, 40.396069845880263 ], [ 26.909725594383396, 40.395947156194914 ], [ 26.909504757979139, 40.396732352299352 ], [ 26.909504757979114, 40.397259905932124 ], [ 26.909466990046472, 40.397980243906964 ], [ 26.909391611220553, 40.398477744624387 ], [ 26.909170499997579, 40.398538047219645 ], [ 26.909286080864113, 40.399035547471406 ], [ 26.909798656880888, 40.399060673746746 ], [ 26.909798657590994, 40.399060674391635 ] ] ] ] } },
{ "type": "Feature", "properties": { "zoneid": 9, "luf": "Green Area", "population": 0, "avgincome": "0", "setback": 0.0, "densitycap": 0.0 }, "geometry": { "type": "MultiPolygon", "coordinates": [ [ [ [ 26.913025871758418, 40.396425636933749 ], [ 26.913271245541036, 40.395750858100079 ], [ 26.913099483893355, 40.395100617576162 ], [ 26.912412437302237, 40.394818437726023 ], [ 26.911418673482761, 40.39503927413039 ], [ 26.910228610637649, 40.396069844017582 ], [ 26.910400372285384, 40.396266143043597 ], [ 26.910339028839747, 40.396867308811217 ], [ 26.910927925918052, 40.396548322893665 ], [ 26.91114876232194, 40.396805965365431 ], [ 26.910633477378742, 40.397161757350304 ], [ 26.910792970337489, 40.397480743267778 ], [ 26.910608940000607, 40.397738385739522 ], [ 26.911099687565574, 40.398535850533143 ], [ 26.911050612808868, 40.399112478922348 ], [ 26.910780701648452, 40.399566420420292 ], [ 26.910866582472167, 40.399946749783432 ], [ 26.910664885223081, 40.400373209417658 ], [ 26.910923999937523, 40.400436025106011 ], [ 26.911253782300946, 40.400286837846416 ], [ 26.91126948622323, 40.400051278083481 ], [ 26.911442229366063, 40.399807867291102 ], [ 26.911481489171248, 40.399957055482332 ], [ 26.911835808913313, 40.399725914310253 ], [ 26.912424705991079, 40.396474709827494 ], [ 26.913025871758418, 40.396425636933749 ] ] ] ] } }
]
}
